NORAD_CAT_ID,OBJECT_NAME,OBJECT_TYPE,EPOCH,MEAN_MOTION,ECCENTRICITY,INCLINATION,RA_OF_ASC_NODE,ARG_OF_PERICENTER,MEAN_ANOMALY,BSTAR,MEAN_MOTION_DOT,MEAN_MOTION_DDOT,TLE_LINE0,TLE_LINE1,TLE_LINE2,SEMIMAJOR_AXIS,PERIOD,APOGEE,PERIGEE,DECAYED
53539.0,STARLINK-4123,PAYLOAD,2023-01-01 17:56:15,15.08830343,0.000197,53.219,254.7698,57.3087,302.8095,-0.00036118,-6.03e-05,0.0,0 STARLINK-4123,1 53539U 22101N   23001.74740608 -.00006030  00000-0 -36118-3 0  9996,2 53539  53.2190 254.7698 0001970  57.3087 302.8095 15.08830343 20605,6917.91,95.438,541.138,538.4119999999998,0.0
53539.0,STARLINK-4123,PAYLOAD,2023-01-02 01:53:12,15.08822719,0.0001942,53.2176,253.2827,52.6316,307.4852,-0.00046041,-7.605e-05,0.0,0 STARLINK-4123,1 53539U 22101N   23002.07861300 -.00007605  00000-0 -46041-3 0  9991,2 53539  53.2176 253.2827 0001942  52.6316 307.4852 15.08822719 20654,6917.933000000001,95.439,541.1419999999998,538.455,0.0
53539.0,STARLINK-4123,PAYLOAD,2023-01-02 09:50:07,15.08843037,0.000184,53.2182,251.7979,51.2034,308.9122,-0.00011069,-2.05e-05,0.0,0 STARLINK-4123,1 53539U 22101N   23002.40980976 -.00002050  00000-0 -11069-3 0  9990,2 53539  53.2182 251.7979 0001840  51.2034 308.9122 15.08843037 20709,6917.871,95.437,541.009,538.4630000000002,0.0
53539.0,STARLINK-4123,PAYLOAD,2023-01-02 16:11:40,15.08835377,0.0002166999999999,53.2182,250.6096,56.8793,303.2407,-0.00012955,-2.349e-05,0.0,0 STARLINK-4123,1 53539U 22101N   23002.67477739 -.00002349  00000-0 -12955-3 0  9993,2 53539  53.2182 250.6096 0002167  56.8793 303.2407 15.08835377 20749,6917.895,95.438,541.259,538.26,0.0
53539.0,STARLINK-4123,PAYLOAD,2023-01-02 22:33:12,15.08852365,0.0002818,53.2169,249.423,60.88,299.2474,-0.00019035,-3.318e-05,0.0,0 STARLINK-4123,1 53539U 22101N   23002.93972863 -.00003318  00000-0 -19035-3 0  9993,2 53539  53.2169 249.4230 0002818  60.8800 299.2474 15.08852365 20785,6917.843000000003,95.437,541.6569999999998,537.758,0.0
53539.0,STARLINK-4123,PAYLOAD,2023-01-03 01:43:58,15.08837983,0.0001588,53.2183,248.8234,48.1865,311.9263,0.00011681,1.571e-05,0.0,0 STARLINK-4123,1 53539U 22101N   23003.07220991  .00001571  00000-0  11681-3 0  9993,2 53539  53.2183 248.8234 0001588  48.1865 311.9263 15.08837983 20801,6917.887,95.438,540.85,538.653,0.0
53539.0,STARLINK-4123,PAYLOAD,2023-01-03 09:40:54,15.08843944,0.0001585999999999,53.2172,247.3382,56.893,303.2214,0.00030858,4.627e-05,0.0,0 STARLINK-4123,1 53539U 22101N   23003.40340557  .00004627  00000-0  30858-3 0  9993,2 53539  53.2172 247.3382 0001586  56.8930 303.2214 15.08843944 20853,6917.868,95.437,540.831,538.636,0.0
53539.0,STARLINK-4123,PAYLOAD,2023-01-03 22:24:00,15.08832331,0.0001699,53.2192,244.9581,55.6223,304.493,0.00031548,4.735e-05,0.0,0 STARLINK-4123,1 53539U 22101N   23003.93333470  .00004735  00000-0  31548-3 0  9994,2 53539  53.2192 244.9581 0001699  55.6223 304.4930 15.08832331 20931,6917.904,95.438,540.944,538.5930000000002,0.0
53539.0,STARLINK-4123,PAYLOAD,2023-01-04 09:31:42,15.08836769,0.0001579,53.2203,242.8751,60.1353,299.9796,0.00023438,3.444e-05,0.0,0 STARLINK-4123,1 53539U 22101N   23004.39701663  .00003444  00000-0  23438-3 0  9993,2 53539  53.2203 242.8751 0001579  60.1353 299.9796 15.08836769 21008,6917.89,95.438,540.8480000000002,538.663,0.0
53539.0,STARLINK-4123,PAYLOAD,2023-01-04 22:14:48,15.0880865,0.0001288,53.2198,240.4968,64.6344,295.4781,0.00079555,0.00012385,0.0,0 STARLINK-4123,1 53539U 22101N   23004.92694711  .00012385  00000-0  79555-3 0  9992,2 53539  53.2198 240.4968 0001288  64.6344 295.4781 15.08808650 21082,6917.976,95.44,540.732,538.95,0.0
53539.0,STARLINK-4123,PAYLOAD,2023-01-05 01:25:32,15.08855596,0.000161,53.2192,239.9018,61.0754,299.0399,0.00012836,1.756e-05,0.0,0 STARLINK-4123,1 53539U 22101N   23005.05940444  .00001756  00000-0  12836-3 0  9993,2 53539  53.2192 239.9018 0001610  61.0754 299.0399 15.08855596 21109,6917.833000000001,95.437,540.811,538.5840000000002,0.0
53539.0,STARLINK-4123,PAYLOAD,2023-01-05 15:43:59,15.0886013,0.0001710999999999,53.2184,237.2265,58.538,301.5779,0.00015552,2.189e-05,0.0,0 STARLINK-4123,1 53539U 22101N   23005.65555453  .00002189  00000-0  15552-3 0  9990,2 53539  53.2184 237.2265 0001711  58.5380 301.5779 15.08860130 21193,6917.819,95.436,540.867,538.5,0.0
53539.0,STARLINK-4123,PAYLOAD,2023-01-06 07:37:51,15.0883637,0.0001954,53.2181,234.2532,58.6198,301.4985,-0.00017107,-3.01e-05,0.0,0 STARLINK-4123,1 53539U 22101N   23006.31796115 -.00003010  00000-0 -17107-3 0  9990,2 53539  53.2181 234.2532 0001954  58.6198 301.4985 15.08836370 21299,6917.891,95.438,541.1080000000002,538.405,0.0
53539.0,STARLINK-4123,PAYLOAD,2023-01-07 01:07:06,15.08840845,0.0001839,53.217,230.9825,56.5044,303.6124,-0.00011348,-2.094e-05,0.0,0 STARLINK-4123,1 53539U 22101N   23007.04660267 -.00002094  00000-0 -11348-3 0  9991,2 53539  53.2170 230.9825 0001839  56.5044 303.6124 15.08840845 21408,6917.8780000000015,95.438,541.015,538.471,0.0
53539.0,STARLINK-4123,PAYLOAD,2023-01-07 10:39:24,15.08846567,0.0001817,53.2161,229.1995,58.4835,301.6334,2.7851e-06,-2.44e-06,0.0,0 STARLINK-4123,1 53539U 22101N   23007.44403894 -.00000244  00000-0  27851-5 0  9998,2 53539  53.2161 229.1995 0001817  58.4835 301.6334 15.08846567 21465,6917.86,95.437,540.982,538.4680000000002,0.0
53539.0,STARLINK-4123,PAYLOAD,2023-01-07 17:00:58,15.08833569,0.0001715,53.2169,228.0097,51.7765,308.3381,-0.00015164,-2.7e-05,0.0,0 STARLINK-4123,1 53539U 22101N   23007.70900543 -.00002700  00000-0 -15164-3 0  9992,2 53539  53.2169 228.0097 0001715  51.7765 308.3381 15.08833569 21508,6917.9,95.438,540.951,538.5790000000002,0.0
53539.0,STARLINK-4123,PAYLOAD,2023-01-07 21:47:07,15.08832461,0.0001602,53.2173,227.118,53.9264,306.1877,-0.0001147,-2.113e-05,0.0,0 STARLINK-4123,1 53539U 22101N   23007.90772686 -.00002113  00000-0 -11470-3 0  9993,2 53539  53.2173 227.1180 0001602  53.9264 306.1877 15.08832461 21538,6917.903,95.438,540.877,538.66,0.0
53539.0,STARLINK-4123,PAYLOAD,2023-01-08 13:40:59,15.08834903,0.0001686999999999,53.2178,224.1435,55.445,304.6701,0.00015924,2.247e-05,0.0,0 STARLINK-4123,1 53539U 22101N   23008.57012940  .00002247  00000-0  15924-3 0  9991,2 53539  53.2178 224.1435 0001687  55.4450 304.6701 15.08834903 21633,6917.896,95.438,540.928,538.594,0.0
53539.0,STARLINK-4123,PAYLOAD,2023-01-08 16:51:45,15.08839066,0.0001745,53.2167,223.5493,56.699,303.4169,0.00017715,2.532e-05,0.0,0 STARLINK-4123,1 53539U 22101N   23008.70260790  .00002532  00000-0  17715-3 0  9991,2 53539  53.2167 223.5493 0001745  56.6990 303.4169 15.08839066 21657,6917.883000000002,95.438,540.955,538.5409999999998,0.0
53539.0,STARLINK-4123,PAYLOAD,2023-01-09 08:45:36,15.08838292,0.0001717,53.2169,220.576,54.0948,306.0203,6.7758e-05,7.9e-06,0.0,0 STARLINK-4123,1 53539U 22101N   23009.36500989  .00000790  00000-0  67758-4 0  9998,2 53539  53.2169 220.5760 0001717  54.0948 306.0203 15.08838292 21756,6917.886,95.438,540.938,538.563,0.0
53539.0,STARLINK-4123,PAYLOAD,2023-01-09 16:42:33,15.08827188,0.0001636,53.2167,219.0888,56.6562,303.4586,0.00027848,4.145e-05,0.0,0 STARLINK-4123,1 53539U 22101N   23009.69621806  .00004145  00000-0  27848-3 0  9999,2 53539  53.2167 219.0888 0001636  56.6562 303.4586 15.08827188 21801,6917.92,95.438,540.9159999999998,538.653,0.0
53539.0,STARLINK-4123,PAYLOAD,2023-01-09 23:04:05,15.08837054,0.0001761,53.2166,217.8994,55.5858,304.53,0.00016647,2.362e-05,0.0,0 STARLINK-4123,1 53539U 22101N   23009.96117371  .00002362  00000-0  16647-3 0  9990,2 53539  53.2166 217.8994 0001761  55.5858 304.5300 15.08837054 21842,6917.889,95.438,540.9730000000002,538.536,0.0
53539.0,STARLINK-4123,PAYLOAD,2023-01-10 13:22:33,15.08845815,0.0001779,53.2165,215.2231,55.7596,304.3564,0.0001703,2.424e-05,0.0,0 STARLINK-4123,1 53539U 22101N   23010.55732974  .00002424  00000-0  17030-3 0  9995,2 53539  53.2165 215.2231 0001779  55.7596 304.3564 15.08845815 21931,6917.863,95.437,540.9580000000002,538.497,0.0
53539.0,STARLINK-4123,PAYLOAD,2023-01-10 19:44:05,15.088490599999998,0.0001753,53.2166,214.0336,56.1231,303.9927,0.00020665,3.003e-05,0.0,0 STARLINK-4123,1 53539U 22101N   23010.82228755  .00003003  00000-0  20665-3 0  9994,2 53539  53.2166 214.0336 0001753  56.1231 303.9927 15.08849060 21976,6917.853,95.437,540.93,538.505,0.0
53539.0,STARLINK-4123,PAYLOAD,2023-01-11 08:27:11,15.08841243,0.0001643,53.2164,211.6541,61.1982,298.9175,0.00015981,2.256e-05,0.0,0 STARLINK-4123,1 53539U 22101N   23011.35221173  .00002256  00000-0  15981-3 0  9994,2 53539  53.2164 211.6541 0001643  61.1982 298.9175 15.08841243 22055,6917.877,95.437,540.878,538.605,0.0
53539.0,STARLINK-4123,PAYLOAD,2023-01-11 19:34:53,15.08839039,0.000173,53.2164,209.5725,61.5742,298.5424,-0.00017954,-3.144e-05,0.0,0 STARLINK-4123,1 53539U 22101N   23011.81589303 -.00003144  00000-0 -17954-3 0  9998,2 53539  53.2164 209.5725 0001730  61.5742 298.5424 15.08839039 22121,6917.883000000002,95.438,540.945,538.552,0.0
53539.0,STARLINK-4123,PAYLOAD,2023-01-12 16:14:54,15.08817828,0.0001488,53.2172,205.7071,64.6851,295.4295,0.00025383,3.752e-05,0.0,0 STARLINK-4123,1 53539U 22101N   23012.67702533  .00003752  00000-0  25383-3 0  9993,2 53539  53.2172 205.7071 0001488  64.6851 295.4295 15.08817828 22255,6917.948,95.439,540.8430000000002,538.784,0.0
53539.0,STARLINK-4123,PAYLOAD,2023-01-12 22:36:26,15.08837668,0.0001661,53.217,204.5178,65.2414,294.8751,6.5927e-06,-1.83e-06,0.0,0 STARLINK-4123,1 53539U 22101N   23012.94197906 -.00000183  00000-0  65927-5 0  9991,2 53539  53.2170 204.5178 0001661  65.2414 294.8751 15.08837668 22291,6917.888000000001,95.438,540.9019999999998,538.6030000000002,0.0
53539.0,STARLINK-4123,PAYLOAD,2023-01-13 19:16:27,15.08836754,0.0001635,53.2173,200.6524,62.7477,297.3681,0.00014007,1.942e-05,0.0,0 STARLINK-4123,1 53539U 22101N   23013.80309893  .00001942  00000-0  14007-3 0  9991,2 53539  53.2173 200.6524 0001635  62.7477 297.3681 15.08836754 22428,6917.89,95.438,540.886,538.624,0.0
